NORAD_CAT_ID,OBJECT_NAME,OBJECT_TYPE,EPOCH,MEAN_MOTION,ECCENTRICITY,INCLINATION,RA_OF_ASC_NODE,ARG_OF_PERICENTER,MEAN_ANOMALY,BSTAR,MEAN_MOTION_DOT,MEAN_MOTION_DDOT,TLE_LINE0,TLE_LINE1,TLE_LINE2,SEMIMAJOR_AXIS,PERIOD,APOGEE,PERIGEE,DECAYED
52624.0,STARLINK-4009,PAYLOAD,2022-11-29 18:38:30,15.08917974,0.0002806,53.2161,237.7898,33.73,326.387,0.00040276,6.141e-05,0.0,0 STARLINK-4009,1 52624U 22052AC  22333.77674447  .00006141  00000-0  40276-3 0  9993,2 52624  53.2161 237.7898 0002806  33.7300 326.3870 15.08917974 30446,6917.642,95.433,541.448,537.566,0.0
52624.0,STARLINK-4009,PAYLOAD,2022-11-30 02:35:28,15.08823069,0.0003114,53.2161,236.3048,25.7216,334.39300000000014,-0.0016944,-0.00027144,0.0,0 STARLINK-4009,1 52624U 22052AC  22334.10796475 -.00027144  00000-0 -16944-2 0  9999,2 52624  53.2161 236.3048 0003114  25.7216 334.3930 15.08823069 30872,6917.932,95.439,541.951,537.643,0.0
52624.0,STARLINK-4009,PAYLOAD,2022-11-30 18:29:22,15.08779022,0.0002835,53.2156,233.3299,26.6455,333.4683,-0.0015239,-0.00024421,0.0,0 STARLINK-4009,1 52624U 22052AC  22334.77039917 -.00024421  00000-0 -15239-2 0  9994,2 52624  53.2156 233.3299 0002835  26.6455 333.4683 15.08779022 30970,6918.066999999999,95.441,541.893,537.971,0.0
52624.0,STARLINK-4009,PAYLOAD,2022-12-01 02:26:19,15.08784037,0.0002852,53.216,231.843,28.3476,331.7671,-0.00095014,-0.00015356,0.0,0 STARLINK-4009,1 52624U 22052AC  22335.10161428 -.00015356  00000-0 -95014-3 0  9992,2 52624  53.2160 231.8430 0002852  28.3476 331.7671 15.08784037 31023,6918.051,95.441,541.889,537.943,0.0
52624.0,STARLINK-4009,PAYLOAD,2022-12-01 10:23:16,15.08772372,0.0002618,53.2156,230.3562,28.6544,331.4591,-0.00023757,-4.06e-05,0.0,0 STARLINK-4009,1 52624U 22052AC  22335.43283343 -.00004060  00000-0 -23757-3 0  9994,2 52624  53.2156 230.3562 0002618  28.6544 331.4591 15.08772372 30696,6918.087,95.442,541.763,538.141,0.0
52624.0,STARLINK-4009,PAYLOAD,2022-12-01 16:44:50,15.08772787,0.0002522,53.215,229.1666,25.6127,334.499,0.00081076,0.00012615,0.0,0 STARLINK-4009,1 52624U 22052AC  22335.69781093  .00012615  00000-0  81076-3 0  9998,2 52624  53.2150 229.1666 0002522  25.6127 334.4990 15.08772787 30730,6918.0859999999975,95.442,541.696,538.206,0.0
52624.0,STARLINK-4009,PAYLOAD,2022-12-01 23:06:23,15.08796791,0.0002412,53.2147,227.9776,22.2116,337.898,0.0012895,0.0002027,0.0,0 STARLINK-4009,1 52624U 22052AC  22335.96277644  .00020270  00000-0  12895-2 0  9998,2 52624  53.2147 227.9776 0002412  22.2116 337.8980 15.08796791 31157,6918.012,95.44,541.5459999999998,538.2090000000002,0.0
52624.0,STARLINK-4009,PAYLOAD,2022-12-02 10:14:06,15.08830242,0.0002613,53.2138,225.8969,25.259,334.853,0.0014925999999999,0.00023541,0.0,0 STARLINK-4009,1 52624U 22052AC  22336.42646235  .00023541  00000-0  14926-2 0  9997,2 52624  53.2138 225.8969 0002613  25.2590 334.8530 15.08830242 31226,6917.91,95.438,541.5830000000002,537.9680000000002,0.0
52624.0,STARLINK-4009,PAYLOAD,2022-12-02 16:35:38,15.08843311,0.0002618,53.2138,224.7072,26.4995,333.61300000000006,0.0014845,0.0002342,0.0,0 STARLINK-4009,1 52624U 22052AC  22336.69142280  .00023420  00000-0  14845-2 0  9993,2 52624  53.2138 224.7072 0002618  26.4995 333.6130 15.08843311 30881,6917.87,95.437,541.5459999999998,537.924,0.0
52624.0,STARLINK-4009,PAYLOAD,2022-12-02 22:57:11,15.08845601,0.0002633,53.2148,223.5172,26.9565,333.1564,0.001183,0.00018593,0.0,0 STARLINK-4009,1 52624U 22052AC  22336.95638338  .00018593  00000-0  11830-2 0  9992,2 52624  53.2148 223.5172 0002633  26.9565 333.1564 15.08845601 31303,6917.863,95.437,541.55,537.9069999999998,0.0
52624.0,STARLINK-4009,PAYLOAD,2022-12-03 10:04:53,15.08848121,0.0002787,53.2146,221.4363,29.379,330.7358,0.0013130999999999,0.00020677,0.0,0 STARLINK-4009,1 52624U 22052AC  22337.42006588  .00020677  00000-0  13131-2 0  9993,2 52624  53.2146 221.4363 0002787  29.3790 330.7358 15.08848121 31378,6917.856,95.437,541.649,537.793,0.0
52624.0,STARLINK-4009,PAYLOAD,2022-12-04 01:58:45,15.08840926,0.0002804,53.2159,218.4636,21.7571,338.3540000000001,0.00029465,4.404e-05,0.0,0 STARLINK-4009,1 52624U 22052AC  22338.08246541  .00004404  00000-0  29465-3 0  9999,2 52624  53.2159 218.4636 0002804  21.7571 338.3540 15.08840926 31477,6917.878000000002,95.437,541.682,537.803,0.0
52624.0,STARLINK-4009,PAYLOAD,2022-12-05 01:49:32,15.0884554,0.0002774,53.2155,214.0008,31.3604,328.7553,0.0005104,7.846e-05,0.0,0 STARLINK-4009,1 52624U 22052AC  22339.07606960  .00007846  00000-0  51040-3 0  9991,2 52624  53.2155 214.0008 0002774  31.3604 328.7553 15.08845540 31629,6917.863,95.437,541.6469999999998,537.809,0.0
52624.0,STARLINK-4009,PAYLOAD,2022-12-05 19:18:46,15.08853729,0.0002793,53.216,210.7298,31.0204,329.0953,0.00049414,7.588e-05,0.0,0 STARLINK-4009,1 52624U 22052AC  22339.80470524  .00007588  00000-0  49414-3 0  9992,2 52624  53.2160 210.7298 0002793  31.0204 329.0953 15.08853729 31359,6917.8380000000025,95.437,541.636,537.771,0.0
52624.0,STARLINK-4009,PAYLOAD,2022-12-06 01:40:18,15.08851005,0.00028,53.2162,209.5408,29.6187,330.4963,0.00030289,4.537e-05,0.0,0 STARLINK-4009,1 52624U 22052AC  22340.06966425  .00004537  00000-0  30289-3 0  9993,2 52624  53.2162 209.5408 0002800  29.6187 330.4963 15.08851005 31770,6917.847,95.437,541.649,537.775,0.0
52624.0,STARLINK-4009,PAYLOAD,2022-12-06 08:01:51,15.08850846,0.0002812,53.2161,208.3514,29.9253,330.19,0.00019663,2.843e-05,0.0,0 STARLINK-4009,1 52624U 22052AC  22340.33462235  .00002843  00000-0  19663-3 0  9994,2 52624  53.2161 208.3514 0002812  29.9253 330.1900 15.08850846 31437,6917.847,95.437,541.658,537.7669999999998,0.0
52624.0,STARLINK-4009,PAYLOAD,2022-12-06 14:23:24,15.08850869,0.00034,53.2159,207.1619,39.8543,320.2698,0.00024437,3.604e-05,0.0,0 STARLINK-4009,1 52624U 22052AC  22340.59958463  .00003604  00000-0  24437-3 0  9996,2 52624  53.2159 207.1619 0003400  39.8543 320.2698 15.08850869 31858,6917.847,95.437,542.064,537.36,0.0
52624.0,STARLINK-4009,PAYLOAD,2022-12-07 01:31:06,15.0882486,0.0002733,53.216,205.0802,27.064,333.0494,-0.00029472,-4.974e-05,0.0,0 STARLINK-4009,1 52624U 22052AC  22341.06327243 -.00004974  00000-0 -29472-3 0  9992,2 52624  53.2160 205.0802 0002733  27.0640 333.0494 15.08824860 31922,6917.927,95.439,541.682,537.901,0.0
52624.0,STARLINK-4009,PAYLOAD,2022-12-07 07:52:39,15.08827314,0.0002642,53.2157,203.891,28.315,331.7986,-0.00016196,-2.864e-05,0.0,0 STARLINK-4009,1 52624U 22052AC  22341.32823518 -.00002864  00000-0 -16196-3 0  9992,2 52624  53.2157 203.8910 0002642  28.3150 331.7986 15.08827314 31583,6917.919,95.438,541.612,537.956,0.0
52624.0,STARLINK-4009,PAYLOAD,2022-12-08 01:21:54,15.08836859,0.0002722,53.2154,200.6198,29.3662,330.7483,0.00021353,3.111e-05,0.0,0 STARLINK-4009,1 52624U 22052AC  22342.05687896  .00003111  00000-0  21353-3 0  9995,2 52624  53.2154 200.6198 0002722  29.3662 330.7483 15.08836859 32071,6917.89,95.438,541.638,537.872,0.0
52624.0,STARLINK-4009,PAYLOAD,2022-12-08 07:43:26,15.08841443,0.0002698,53.2151,199.4304,29.7357,330.3788,0.00032452,4.88e-05,0.0,0 STARLINK-4009,1 52624U 22052AC  22342.32183858  .00004880  00000-0  32452-3 0  9990,2 52624  53.2151 199.4304 0002698  29.7357 330.3788 15.08841443 31730,6917.876,95.437,541.607,537.875,0.0
52624.0,STARLINK-4009,PAYLOAD,2022-12-08 17:15:45,15.0884603,0.0002695,53.2144,197.6465,30.3762,329.7386,0.00050651,7.784e-05,0.0,0 STARLINK-4009,1 52624U 22052AC  22342.71927925  .00007784  00000-0  50651-3 0  9991,2 52624  53.2144 197.6465 0002695  30.3762 329.7386 15.08846030 31794,6917.861999999999,95.437,541.591,537.863,0.0
52624.0,STARLINK-4009,PAYLOAD,2022-12-09 01:12:41,15.0885607,0.0002733,53.214,196.1598,31.3131,328.8023,0.00058367,9.017e-05,0.0,0 STARLINK-4009,1 52624U 22052AC  22343.05047555  .00009017  00000-0  58367-3 0  9994,2 52624  53.2140 196.1598 0002733  31.3131 328.8023 15.08856070 32227,6917.831,95.437,541.587,537.806,0.0
52624.0,STARLINK-4009,PAYLOAD,2022-12-09 13:55:46,15.08848679,0.0002827,53.2133,193.7812,33.1318,326.9851,0.00012889,1.764e-05,0.0,0 STARLINK-4009,1 52624U 22052AC  22343.58039420  .00001764  00000-0  12889-3 0  9994,2 52624  53.2133 193.7812 0002827  33.1318 326.9851 15.08848679 31922,6917.854,95.437,541.675,537.763,0.0
52624.0,STARLINK-4009,PAYLOAD,2022-12-09 17:06:32,15.0884445,0.0002306,53.2148,193.1853,29.3389,330.7732,0.00012938,1.772e-05,0.0,0 STARLINK-4009,1 52624U 22052AC  22343.71287523  .00001772  00000-0  12938-3 0  9992,2 52624  53.2148 193.1853 0002306  29.3389 330.7732 15.08844450 32323,6917.8669999999975,95.437,541.327,538.137,0.0
52624.0,STARLINK-4009,PAYLOAD,2022-12-10 01:03:28,15.08827589,0.0002291,53.2147,191.6977,25.7206,334.3899,-0.0002433,-4.157e-05,0.0,0 STARLINK-4009,1 52624U 22052AC  22344.04408090 -.00004157  00000-0 -24330-3 0  9994,2 52624  53.2147 191.6977 0002291  25.7206 334.3899 15.08827589 32376,6917.918000000002,95.438,541.368,538.198,0.0
52624.0,STARLINK-4009,PAYLOAD,2022-12-10 18:32:43,15.088404999999998,0.0003593,53.2144,188.4282,86.4401,273.7002,8.0377e-06,-1.61e-06,0.0,0 STARLINK-4009,1 52624U 22052AC  22344.77272321 -.00000161  00000-0  80377-5 0  9995,2 52624  53.2144 188.4282 0003593  86.4401 273.7002 15.08840500 32485,6917.879,95.438,542.229,537.258,0.0
52624.0,STARLINK-4009,PAYLOAD,2022-12-10 20:08:10,15.08731818,0.0002149,53.2148,188.1311,62.7834,297.3377,-0.001616,-0.0002583999999999,0.0,0 STARLINK-4009,1 52624U 22052AC  22344.83901584 -.00025840  00000-0 -16160-2 0  9990,2 52624  53.2148 188.1311 0002149  62.7834 297.3377 15.08731818 32110,6918.2109999999975,95.444,541.563,538.589,0.0
52624.0,STARLINK-4009,PAYLOAD,2022-12-11 00:54:16,15.08833373,0.0002768999999999,53.2143,187.2385,32.0764,328.0396,6.7488e-05,7.86e-06,0.0,0 STARLINK-4009,1 52624U 22052AC  22345.03768945  .00000786  00000-0  67488-4 0  9996,2 52624  53.2143 187.2385 0002769  32.0764 328.0396 15.08833373 32523,6917.901,95.438,541.681,537.85,0.0
